STARLINK-1759           
1 46340U 20062R   23234.14628451  .00004915  00000+0  34856-3 0  9999
2 46340  53.0537 233.9983 0001602 101.7120 258.4048 15.06408105164237
STARLINK-1760           
1 46341U 20062S   23234.15180487  .00001263  00000+0  10366-3 0  9996
2 46341  53.0545 213.9620 0001365  88.1071 272.0075 15.06393439164529
STARLINK-1762           
1 46342U 20062T   23233.99883993  .00002488  00000+0  18588-3 0  9994
2 46342  53.0516 234.6545 0001387  95.2316 264.8831 15.06398456164218
STARLINK-1764           
1 46343U 20062U   23234.19235340  .00000897  00000+0  79098-4 0  9991
2 46343  53.0533 213.7841 0001367  97.4410 262.6734 15.06390772164527
STARLINK-1765           
1 46344U 20062V   23234.40982512  .00010038  00000+0  69197-3 0  9992
2 46344  53.0530 212.8037 0001288  93.0883 267.0254 15.06391105164538
STARLINK-1767           
1 46345U 20062W   23234.01263402  .00001433  00000+0  11508-3 0  9992
2 46345  53.0538 234.5780 0001266  84.6201 275.4932 15.06395860164212
STARLINK-1547           
1 46347U 20062Y   23234.17068020  .00013738  00000+0  93868-3 0  9990
2 46347  53.0540 188.8786 0001542  96.7022 263.4143 15.06427596164860
STARLINK-1553           
1 46348U 20062Z   23234.21446565 -.00000012  00000+0  18101-4 0  9990
2 46348  53.0531 213.6841 0001048  77.8980 282.2126 15.06390196164522
STARLINK-1575           
1 46349U 20062AA  23234.07853927  .00019513  00000+0  13246-2 0  9997
2 46349  53.0535 189.2923 0001312  99.6477 260.4660 15.06417989164850
STARLINK-1617           
1 46350U 20062AB  23234.17577130  .00000481  00000+0  51210-4 0  9998
2 46350  53.0525 233.8572 0001857  90.9035 269.2167 15.06401830164245
STARLINK-1646           
1 46351U 20062AC  23234.11400282  .00000066  00000+0  23321-4 0  9997
2 46351  53.0538 214.1261 0001288  92.9864 267.1272 15.06389307164515
STARLINK-1653           
1 46352U 20062AD  23234.16286343 -.00000071  00000+0  14144-4 0  9993
2 46352  53.0547 213.9097 0001427 113.3654 246.7485 15.06392962164521
STARLINK-1656           
1 46353U 20062AE  23234.16102176  .00000503  00000+0  52653-4 0  9991
2 46353  53.0545 233.9213 0001459 108.5547 251.5601 15.06393356164234
STARLINK-1657           
1 46354U 20062AF  23234.01727007  .00002315  00000+0  17426-3 0  9993
2 46354  53.0532 234.5665 0001484  93.7696 266.3462 15.06396723164215
STARLINK-1661           
1 46355U 20062AG  23234.38954735  .00004008  00000+0  28775-3 0  9994
2 46355  53.0528 232.8983 0001051  89.0285 271.0824 15.06403264164277
STARLINK-1665           
1 46356U 20062AH  23233.33811993 -.00001320  00000+0 -69713-4 0  9991
2 46356  53.0543 237.6105 0001494 120.7614 239.3522 15.06394314164114
STARLINK-1666           
1 46357U 20062AJ  23234.19972709  .00001724  00000+0  13466-3 0  9999
2 46357  53.0533 213.7512 0001510  91.1108 269.0054 15.06390568164521
STARLINK-1690           
1 46358U 20062AK  23233.98040392  .00001193  00000+0  98951-4 0  9993
2 46358  53.0540 234.7335 0001430 105.6469 254.4678 15.06398668164213
STARLINK-1707           
1 46359U 20062AL  23234.09325725  .00002087  00000+0  15886-3 0  9991
2 46359  53.0541 189.2254 0001443  95.1261 264.9893 15.06420468164855
STARLINK-1713           
1 46360U 20062AM  23234.18174178  .00011340  00000+0  77862-3 0  9991
2 46360  53.0540 188.8290 0001285  88.1593 271.9544 15.06416263164876
STARLINK-1722           
1 46361U 20062AN  23234.15131190  .00019966  00000+0  13545-2 0  9995
2 46361  53.0531 188.9581 0001456  78.7387 281.3766 15.06427741164859
STARLINK-1726           
1 46362U 20062AP  23234.06379393  .00009637  00000+0  66478-3 0  9993
2 46362  53.0534 189.3574 0001247 108.4418 251.6706 15.06409951164851
STARLINK-1739           
1 46363U 20062AQ  23234.18816859  .00013924  00000+0  95139-3 0  9990
2 46363  53.0535 188.7925 0001334  97.0981 263.0160 15.06416147164846
STARLINK-1763           
1 46364U 20062AR  23234.05832219  .00020204  00000+0  13702-2 0  9999
2 46364  53.0534 169.8927 0001584 103.6400 256.4765 15.06431711165128
STARLINK-1550           
1 46365U 20062AS  23234.23334091  .00016149  00000+0  10996-2 0  9990
2 46365  53.0542 188.5984 0001390  92.9376 267.1772 15.06432183164856
STARLINK-1651           
1 46366U 20062AT  23234.15593596  .00017456  00000+0  11869-2 0  9991
2 46366  53.0544 188.9460 0001447 101.4953 258.6198 15.06429648164862
STARLINK-1658           
1 46368U 20062AV  23234.08819993  .00000105  00000+0  25970-4 0  9990
2 46368  53.0542 214.2433 0001362 101.2054 258.9088 15.06391789164518
STARLINK-1670           
1 46370U 20062AX  23234.18497753  .00000032  00000+0  21067-4 0  9992
2 46370  53.0528 213.8131 0001277  94.6497 265.4638 15.06392117164527
STARLINK-1688           
1 46371U 20062AY  23234.11125735  .00000464  00000+0  50044-4 0  9990
2 46371  53.0549 214.1474 0001384  99.5939 260.5206 15.06392914164510
STARLINK-1689           
1 46372U 20062AZ  23234.18683026  .00001086  00000+0  91803-4 0  9999
2 46372  53.0538 233.8070 0001502  89.2610 270.8551 15.06392801164245
STARLINK-1711           
1 46374U 20062BB  23234.06793470  .00001062  00000+0  90181-4 0  9995
2 46374  53.0544 164.3481 0001364  90.9699 269.1447 15.06409394165196
STARLINK-1724           
1 46375U 20062BC  23234.14856469  .00019903  00000+0  13501-2 0  9995
2 46375  53.0526 188.9802 0001496 100.1432 259.9726 15.06432548164868
STARLINK-1742           
1 46376U 20062BD  23234.09695959  .00000981  00000+0  84717-4 0  9990
2 46376  53.0537 189.2072 0001328  95.3199 264.7941 15.06405667164857
STARLINK-1758           
1 46380U 20062BH  23233.93065057  .00000047  00000+0  22059-4 0  9991
2 46380  53.0534 214.9552 0001618  83.2465 276.8708 15.06390760164483
STARLINK-1769           
1 46382U 20062BK  23234.31073870  .00017096  00000+0  11626-2 0  9996
2 46382  53.0536 188.2517 0001334 100.5677 259.5462 15.06438410164866
STARLINK-1770           
1 46383U 20062BL  23234.16470748  .00001670  00000+0  13100-3 0  9996
2 46383  53.0540 233.9089 0001366  94.4175 265.6970 15.06396023164239
STARLINK-1771           
1 46384U 20062BM  23234.43377810  .00001184  00000+0  98340-4 0  9993
2 46384  53.0539 232.6966 0001345  89.3514 270.7629 15.06398623164275
STARLINK-1644           
1 46532U 20070A   23234.43378006  .00001842  00000+0  14249-3 0  9991
2 46532  53.0554  32.7010 0001112  72.1222 287.9888 15.06397818159315
STARLINK-1648           
1 46533U 20070B   23234.44483428  .00001808  00000+0  14022-3 0  9999
2 46533  53.0551  32.6507 0000647  49.2084 310.8961 15.06397199159316
STARLINK-1659           
1 46534U 20070C   23234.49275475  .00003104  00000+0  22718-3 0  9998
2 46534  53.0549  32.4360 0001090  91.4677 268.6436 15.06399146159321
STARLINK-1663           
1 46535U 20070D   23234.48169864  .00005639  00000+0  39720-3 0  9998
2 46535  53.0551  32.4855 0000758  29.7963 330.3069 15.06397074159312
STARLINK-1672           
1 46537U 20070F   23233.84402633  .00015923  00000+0  10849-2 0  9990
2 46537  53.0557  35.3446 0001183  90.6123 269.5002 15.06418085158917
STARLINK-1678           
1 46538U 20070G   23233.88825053  .00021263  00000+0  14408-2 0  9999
2 46538  53.0551  35.1501 0001131  74.4433 285.6681 15.06432700158911
STARLINK-1687           
1 46541U 20070K   23234.39876210  .00001811  00000+0  14043-3 0  9994
2 46541  53.0550  12.8563 0001001  76.6522 283.4578 15.06396606159560
STARLINK-1692           
1 46542U 20070L   23234.46695482  .00000198  00000+0  32189-4 0  9992
2 46542  53.0574  32.5503 0001025  89.3573 270.7533 15.06389397159315
STARLINK-1693           
1 46543U 20070M   23233.78873230  .00016457  00000+0  11203-2 0  9993
2 46543  53.0547  35.5953 0000761  45.5964 314.5088 15.06427193159210
STARLINK-1694           
1 46544U 20070N   23234.38171562  .00015720  00000+0  10719-2 0  9993
2 46544  53.0553  17.9327 0001350  70.5311 289.5824 15.06400149159509
STARLINK-1696           
1 46545U 20070P   23233.75924666  .00011468  00000+0  78720-3 0  9997
2 46545  53.0541  35.7254 0001082  82.4431 277.6681 15.06416741159190
STARLINK-1697           
1 46546U 20070Q   23234.47432420  .00006434  00000+0  45041-3 0  9997
2 46546  53.0556  32.5167 0000912  80.5339 279.5753 15.06401787159007
STARLINK-1698           
1 46547U 20070R   23233.83938922  .00016095  00000+0  10962-2 0  9992
2 46547  53.0549  35.3596 0000445  10.3918 349.7080 15.06424527159226
STARLINK-1699           
1 46548U 20070S   23234.44852141  .00017719  00000+0  12053-2 0  9996
2 46548  53.0553  32.6354 0000966  65.5597 294.5492 15.06405333159315
STARLINK-1700           
1 46549U 20070T   23234.47799657 -.00001799  00000+0 -10189-3 0  9994
2 46549  53.0551  32.4962 0001199  93.2067 266.9059 15.06401929159001
STARLINK-1701           
1 46550U 20070U   23234.46326473  .00002032  00000+0  15528-3 0  9998
2 46550  53.0551  32.5688 0000875  73.3397 286.7688 15.06400315159314
STARLINK-1664           
1 46553U 20070X   23234.51763130  .00017783  00000+0  12099-2 0  9990
2 46553  53.0555   2.3318 0001322  94.5859 265.5281 15.06393799159739
STARLINK-1671           
1 46554U 20070Y   23234.43700247  .00007429  00000+0  51699-3 0  9998
2 46554  53.0556  17.6822 0000944  75.7321 284.3773 15.06405468159512
STARLINK-1676           
1 46556U 20070AA  23233.76661968  .00020087  00000+0  13627-2 0  9994
2 46556  53.0539  35.6908 0001070  79.8644 280.2466 15.06424269159215
STARLINK-1679           
1 46557U 20070AB  23234.40753737  .00006166  00000+0  43252-3 0  9993
2 46557  53.0564  17.8177 0001102  72.2883 287.8227 15.06395370159513
STARLINK-1680           
1 46558U 20070AC  23233.68506602  .00020471  00000+0  13881-2 0  9999
2 46558  53.0551  21.0565 0000764  78.6837 281.4238 15.06429556159404
STARLINK-1681           
1 46559U 20070AD  23234.40241573  .00000839  00000+0  75201-4 0  9996
2 46559  53.0566   2.8302 0001509  97.6830 262.4330 15.06399705159717
